start=new Date('2022-01-24T00:00:00.000Z').valueOf();
sats=[{"LAUNCH_DATE":"2020-06-13","SEMIMAJOR_AXIS":"6925.336","EPHEMERIS_TYPE":"0","ARG_OF_PERICENTER":"73.8288","TLE_LINE1":"1 45773U 20038AV  22023.57762159  .00003150  00000-0  23023-3 0  9992","MEAN_MOTION_DOT":"0.00003150","INCLINATION":"53.0549","ECCENTRICITY":"0.00013390","REF_FRAME":"TEME","TIME_SYSTEM":"UTC","BSTAR":"0.00023023000000","PERIOD":"95.592","PERIAPSIS":"546.273","GP_ID":"194461922","DECAY_DATE":null,"RA_OF_ASC_NODE":"117.8208","OBJECT_TYPE":"PAYLOAD","REV_AT_EPOCH":"8975","MEAN_MOTION_DDOT":"0.0000000000000","FILE":"3280923","OBJECT_ID":"2020-038AV","MEAN_ELEMENT_THEORY":"SGP4","RCS_SIZE":"LARGE","APOAPSIS":"548.128","ELEMENT_SET_NO":"999","EPOCH":"2022-01-23T13:51:46.505376","MEAN_ANOMALY":"286.2848","TLE_LINE2":"2 45773  53.0549 117.8208 0001339  73.8288 286.2848 15.06404204 89756","OBJECT_NAME":"STARLINK-1482","SITE":"AFETR","CENTER_NAME":"EARTH","CLASSIFICATION_TYPE":"U","NORAD_CAT_ID":"45773","COUNTRY_CODE":"US","MEAN_MOTION":"15.06404204"},{"MEAN_MOTION_DDOT":"0.0000000000000","REV_AT_EPOCH":"9086","OBJECT_TYPE":"PAYLOAD","RA_OF_ASC_NODE":"117.9444","DECAY_DATE":null,"GP_ID":"194468928","MEAN_ANOMALY":"282.5966","RCS_SIZE":"LARGE","EPOCH":"2022-01-23T13:09:19.383264","APOAPSIS":"548.056","ELEMENT_SET_NO":"999","MEAN_ELEMENT_THEORY":"SGP4","OBJECT_ID":"2020-038AW","FILE":"3281012","SITE":"AFETR","OBJECT_NAME":"STARLINK-1485","TLE_LINE2":"2 45774  53.0556 117.9444 0001204  77.5158 282.5966 15.06397337 90868","MEAN_MOTION":"15.06397337","COUNTRY_CODE":"US","NORAD_CAT_ID":"45774","CLASSIFICATION_TYPE":"U","CENTER_NAME":"EARTH","TLE_LINE1":"1 45774U 20038AW  22023.54814101  .00003406  00000-0  24743-3 0  9999","ARG_OF_PERICENTER":"77.5158","EPHEMERIS_TYPE":"0","SEMIMAJOR_AXIS":"6925.357","LAUNCH_DATE":"2020-06-13","INCLINATION":"53.0556","MEAN_MOTION_DOT":"0.00003406","TIME_SYSTEM":"UTC","REF_FRAME":"TEME","ECCENTRICITY":"0.00012040","PERIAPSIS":"546.388","PERIOD":"95.592","BSTAR":"0.00024743000000"},{"CLASSIFICATION_TYPE":"U","CENTER_NAME":"EARTH","NORAD_CAT_ID":"45775","MEAN_MOTION":"15.06393902","COUNTRY_CODE":"US","TLE_LINE2":"2 45775  53.0548 117.9374 0001411  77.6315 282.4832 15.06393902 89759","OBJECT_NAME":"STARLINK-1488","SITE":"AFETR","FILE":"3280923","OBJECT_ID":"2020-038AX","MEAN_ELEMENT_THEORY":"SGP4","APOAPSIS":"548.209","RCS_SIZE":"LARGE","EPOCH":"2022-01-23T13:14:37.778496","ELEMENT_SET_NO":"999","MEAN_ANOMALY":"282.4832","GP_ID":"194462417","DECAY_DATE":null,"RA_OF_ASC_NODE":"117.9374","OBJECT_TYPE":"PAYLOAD","REV_AT_EPOCH":"8975","MEAN_MOTION_DDOT":"0.0000000000000","BSTAR":"0.00007962700000","PERIOD":"95.593","PERIAPSIS":"546.255","ECCENTRICITY":"0.00014110","REF_FRAME":"TEME","TIME_SYSTEM":"UTC","MEAN_MOTION_DOT":"0.00000905","INCLINATION":"53.0548","LAUNCH_DATE":"2020-06-13","SEMIMAJOR_AXIS":"6925.367","EPHEMERIS_TYPE":"0","ARG_OF_PERICENTER":"77.6315","TLE_LINE1":"1 45775U 20038AX  22023.55182614  .00000905  00000-0  79627-4 0  9991"},{"GP_ID":"194461673","DECAY_DATE":null,"RA_OF_ASC_NODE":"117.8967","OBJECT_TYPE":"PAYLOAD","REV_AT_EPOCH":"8975","MEAN_MOTION_DDOT":"0.0000000000000","FILE":"3280923","OBJECT_ID":"2020-038AY","MEAN_ELEMENT_THEORY":"SGP4","RCS_SIZE":"LARGE","APOAPSIS":"548.066","ELEMENT_SET_NO":"999","EPOCH":"2022-01-23T13:25:14.105856","MEAN_ANOMALY":"284.8768","TLE_LINE2":"2 45776  53.0536 117.8967 0001206  75.2355 284.8768 15.06394512 89756","OBJECT_NAME":"STARLINK-1489","SITE":"AFETR","CENTER_NAME":"EARTH","CLASSIFICATION_TYPE":"U","NORAD_CAT_ID":"45776","COUNTRY_CODE":"US","MEAN_MOTION":"15.06394512","LAUNCH_DATE":"2020-06-13","SEMIMAJOR_AXIS":"6925.365","EPHEMERIS_TYPE":"0","ARG_OF_PERICENTER":"75.2355","TLE_LINE1":"1 45776U 20038AY  22023.55919104  .00000770  00000-0  70573-4 0  9995","MEAN_MOTION_DOT":"0.00000770","INCLINATION":"53.0536","ECCENTRICITY":"0.00012060","REF_FRAME":"TEME","TIME_SYSTEM":"UTC","BSTAR":"0.00007057300000","PERIOD":"95.592","PERIAPSIS":"546.395"},{"TLE_LINE2":"2 45777  53.0549 117.9257 0001299  67.7235 292.3892 15.06398363 89759","OBJECT_NAME":"STARLINK-1490","SITE":"AFETR","CENTER_NAME":"EARTH","CLASSIFICATION_TYPE":"U","MEAN_MOTION":"15.06398363","COUNTRY_CODE":"US","NORAD_CAT_ID":"45777","DECAY_DATE":null,"GP_ID":"194461423","OBJECT_TYPE":"PAYLOAD","RA_OF_ASC_NODE":"117.9257","MEAN_MOTION_DDOT":"0.0000000000000","REV_AT_EPOCH":"8975","OBJECT_ID":"2020-038AZ","FILE":"3280923","RCS_SIZE":"LARGE","APOAPSIS":"548.118","ELEMENT_SET_NO":"999","EPOCH":"2022-01-23T13:19:56.076960","MEAN_ELEMENT_THEORY":"SGP4","MEAN_ANOMALY":"292.3892","REF_FRAME":"TEME","ECCENTRICITY":"0.00012990","TIME_SYSTEM":"UTC","PERIOD":"95.592","BSTAR":"0.00020025000000","PERIAPSIS":"546.319","LAUNCH_DATE":"2020-06-13","SEMIMAJOR_AXIS":"6925.354","EPHEMERIS_TYPE":"0","TLE_LINE1":"1 45777U 20038AZ  22023.55551015  .00002702  00000-0  20025-3 0  9992","ARG_OF_PERICENTER":"67.7235","MEAN_MOTION_DOT":"0.00002702","INCLINATION":"53.0549"},{"CLASSIFICATION_TYPE":"U","CENTER_NAME":"EARTH","NORAD_CAT_ID":"45778","COUNTRY_CODE":"US","MEAN_MOTION":"15.06392377","TLE_LINE2":"2 45778  53.0541 117.1085 0001391  77.6037 282.5108 15.06392377 90882","SITE":"AFETR","OBJECT_NAME":"STARLINK-1491","MEAN_ELEMENT_THEORY":"SGP4","RCS_SIZE":"LARGE","ELEMENT_SET_NO":"999","APOAPSIS":"548.200","EPOCH":"2022-01-23T17:40:01.505856","FILE":"3281012","OBJECT_ID":"2020-038BA","MEAN_ANOMALY":"282.5108","RA_OF_ASC_NODE":"117.1085","OBJECT_TYPE":"PAYLOAD","GP_ID":"194469354","DECAY_DATE":null,"REV_AT_EPOCH":"9088","MEAN_MOTION_DDOT":"0.0000000000000","BSTAR":"0.00019914000000","PERIOD":"95.593","PERIAPSIS":"546.274","ECCENTRICITY":"0.00013910","REF_FRAME":"TEME","TIME_SYSTEM":"UTC","MEAN_MOTION_DOT":"0.00002685","INCLINATION":"53.0541","SEMIMAJOR_AXIS":"6925.372","LAUNCH_DATE":"2020-06-13","ARG_OF_PERICENTER":"77.6037","TLE_LINE1":"1 45778U 20038BA  22023.73612854  .00002685  00000-0  19914-3 0  9997","EPHEMERIS_TYPE":"0"},{"NORAD_CAT_ID":"45779","COUNTRY_CODE":"US","MEAN_MOTION":"15.06402217","CENTER_NAME":"EARTH","CLASSIFICATION_TYPE":"U","OBJECT_NAME":"STARLINK-1492","SITE":"AFETR","TLE_LINE2":"2 45779  53.0532 118.0192 0001548  67.9615 292.1538 15.06402217 89731","MEAN_ANOMALY":"292.1538","FILE":"3280923","OBJECT_ID":"2020-038BB","MEAN_ELEMENT_THEORY":"SGP4","EPOCH":"2022-01-23T12:48:04.592736","RCS_SIZE":"LARGE","APOAPSIS":"548.279","ELEMENT_SET_NO":"999","REV_AT_EPOCH":"8973","MEAN_MOTION_DDOT":"0.0000000000000","GP_ID":"194462917","DECAY_DATE":null,"RA_OF_ASC_NODE":"118.0192","OBJECT_TYPE":"PAYLOAD","PERIAPSIS":"546.135","BSTAR":"0.00021723000000","PERIOD":"95.592","TIME_SYSTEM":"UTC","ECCENTRICITY":"0.00015480","REF_FRAME":"TEME","INCLINATION":"53.0532","MEAN_MOTION_DOT":"0.00002956","EPHEMERIS_TYPE":"0","ARG_OF_PERICENTER":"67.9615","TLE_LINE1":"1 45779U 20038BB  22023.53338649  .00002956  00000-0  21723-3 0  9995","LAUNCH_DATE":"2020-06-13","SEMIMAJOR_AXIS":"6925.342"},{"TLE_LINE2":"2 45780  53.0549 117.9783 0001228  79.4912 280.6216 15.06395781 89730","OBJECT_NAME":"STARLINK-1496","SITE":"AFETR","CENTER_NAME":"EARTH","CLASSIFICATION_TYPE":"U","MEAN_MOTION":"15.06395781","COUNTRY_CODE":"US","NORAD_CAT_ID":"45780","DECAY_DATE":null,"GP_ID":"194461174","OBJECT_TYPE":"PAYLOAD","RA_OF_ASC_NODE":"117.9783","MEAN_MOTION_DDOT":"0.0000000000000","REV_AT_EPOCH":"8973","OBJECT_ID":"2020-038BC","FILE":"3280923","RCS_SIZE":"LARGE","APOAPSIS":"548.077","ELEMENT_SET_NO":"999","EPOCH":"2022-01-23T13:04:00.057504","MEAN_ELEMENT_THEORY":"SGP4","MEAN_ANOMALY":"280.6216","REF_FRAME":"TEME","ECCENTRICITY":"0.00012280","TIME_SYSTEM":"UTC","PERIOD":"95.592","BSTAR":"0.00006249100000","PERIAPSIS":"546.376","LAUNCH_DATE":"2020-06-13","SEMIMAJOR_AXIS":"6925.361","EPHEMERIS_TYPE":"0","TLE_LINE1":"1 45780U 20038BC  22023.54444511  .00000649  00000-0  62491-4 0  9999","ARG_OF_PERICENTER":"79.4912","MEAN_MOTION_DOT":"0.00000649","INCLINATION":"53.0549"},{"MEAN_ELEMENT_THEORY":"SGP4","RCS_SIZE":"LARGE","ELEMENT_SET_NO":"999","APOAPSIS":"548.101","EPOCH":"2022-01-23T18:27:47.508768","FILE":"3281013","OBJECT_ID":"2020-038BD","MEAN_ANOMALY":"296.3843","RA_OF_ASC_NODE":"116.9660","OBJECT_TYPE":"PAYLOAD","GP_ID":"194469360","DECAY_DATE":null,"REV_AT_EPOCH":"9070","MEAN_MOTION_DDOT":"0.0000000000000","CENTER_NAME":"EARTH","CLASSIFICATION_TYPE":"U","NORAD_CAT_ID":"45781","COUNTRY_CODE":"US","MEAN_MOTION":"15.06409002","TLE_LINE2":"2 45781  53.0531 116.9660 0001322  63.7282 296.3843 15.06409002 90707","SITE":"AFETR","OBJECT_NAME":"STARLINK-1497","MEAN_MOTION_DOT":"0.00006247","INCLINATION":"53.0531","SEMIMAJOR_AXIS":"6925.321","LAUNCH_DATE":"2020-06-13","ARG_OF_PERICENTER":"63.7282","TLE_LINE1":"1 45781U 20038BD  22023.76929987  .00006247  00000-0  43780-3 0  9998","EPHEMERIS_TYPE":"0","BSTAR":"0.00043780000000","PERIOD":"95.592","PERIAPSIS":"546.270","ECCENTRICITY":"0.00013220","REF_FRAME":"TEME","TIME_SYSTEM":"UTC"},{"CLASSIFICATION_TYPE":"U","CENTER_NAME":"EARTH","MEAN_MOTION":"15.06407096","COUNTRY_CODE":"US","NORAD_CAT_ID":"45782","TLE_LINE2":"2 45782  53.0542 117.5929 0001272  77.3270 282.7861 15.06407096 90684","OBJECT_NAME":"STARLINK-1498","SITE":"AFETR","OBJECT_ID":"2020-038BE","FILE":"3281013","RCS_SIZE":"LARGE","APOAPSIS":"548.073","ELEMENT_SET_NO":"999","EPOCH":"2022-01-23T15:06:05.546304","MEAN_ELEMENT_THEORY":"SGP4","MEAN_ANOMALY":"282.7861","DECAY_DATE":null,"GP_ID":"194469362","OBJECT_TYPE":"PAYLOAD","RA_OF_ASC_NODE":"117.5929","MEAN_MOTION_DDOT":"0.0000000000000","REV_AT_EPOCH":"9068","PERIOD":"95.592","BSTAR":"0.00034202000000","PERIAPSIS":"546.311","REF_FRAME":"TEME","ECCENTRICITY":"0.00012720","TIME_SYSTEM":"UTC","MEAN_MOTION_DOT":"0.00004818","INCLINATION":"53.0542","LAUNCH_DATE":"2020-06-13","SEMIMAJOR_AXIS":"6925.327","EPHEMERIS_TYPE":"0","TLE_LINE1":"1 45782U 20038BE  22023.62923086  .00004818  00000-0  34202-3 0  9999","ARG_OF_PERICENTER":"77.3270"}];
